STARLINK-30912          
1 58422U 23180W   26068.53218252 -.00001759  00000+0 -54392-4 0  9995
2 58422  43.0033 271.1870 0002016 274.9961  85.0660 15.27584533129278
FLOCK 4G-6              
1 62660U 25009BD  26068.71061311  .00012261  00000+0  45910-3 0  9991
2 62660  97.3980 150.7943 0002380 348.2637  11.8546 15.27432125121307
